{
  "type": "FeatureCollection",
  "features": [
    {
      "type": "Feature",
      "properties": {
        "norad_id": 34010,
        "name": "COSMOS 2251 DEB",
        "group": "cosmos-2251-debris",
        "lat": -72.26494172956794,
        "lon": -140.42175442763676,
        "alt_km": 519.7194405411128,
        "timestamp": "2025-12-12T16:50:33.539821+00:00",
        "meta_object_name": "COSMOS 2251 DEB",
        "meta_object_id": "1993-036GV",
        "meta_epoch": "2025-12-12T06:08:12.786720",
        "meta_mean_motion": 15.1853705,
        "meta_eccentricity": 0.00048798,
        "meta_inclination": 73.9979,
        "meta_ra_of_asc_node": 284.3244,
        "meta_arg_of_pericenter": 67.1958,
        "meta_mean_anomaly": 292.9754,
        "meta_ephemeris_type": 0,
        "meta_classification_type": "U",
        "meta_norad_cat_id": 34010,
        "meta_element_set_no": 999,
        "meta_rev_at_epoch": 89278,
        "meta_bstar": 0.0061075854,
        "meta_mean_motion_dot": 0.00128419,
        "meta_mean_motion_ddot": 0,
        "tle_line1": "1 34010U 93036GV  25346.25570355  .00128419  00000+0  61076-2 0  9997",
        "tle_line2": "2 34010  73.9979 284.3244 0004879  67.1958 292.9754 15.18537050892782"
      },
      "geometry": {
        "type": "Point",
        "coordinates": [
          -140.42175442763676,
          -72.26494172956794
        ]
      }
    },
    {
      "type": "Feature",
      "properties": {
        "norad_id": 34011,
        "name": "COSMOS 2251 DEB",
        "group": "cosmos-2251-debris",
        "lat": 57.70714061948707,
        "lon": -2.808019045042396,
        "alt_km": 721.6359621591055,
        "timestamp": "2025-12-12T16:50:33.539831+00:00",
        "meta_object_name": "COSMOS 2251 DEB",
        "meta_object_id": "1993-036GW",
        "meta_epoch": "2025-12-11T23:54:25.193088",
        "meta_mean_motion": 14.4176453,
        "meta_eccentricity": 0.0035537,
        "meta_inclination": 74.0154,
        "meta_ra_of_asc_node": 331.5293,
        "meta_arg_of_pericenter": 55.2711,
        "meta_mean_anomaly": 305.1783,
        "meta_ephemeris_type": 0,
        "meta_classification_type": "U",
        "meta_norad_cat_id": 34011,
        "meta_element_set_no": 999,
        "meta_rev_at_epoch": 87905,
        "meta_bstar": 0.0012457,
        "meta_mean_motion_dot": 4.074e-05,
        "meta_mean_motion_ddot": 0,
        "tle_line1": "1 34011U 93036GW  25345.99612492  .00004074  00000+0  12457-2 0  9996",
        "tle_line2": "2 34011  74.0154 331.5293 0035537  55.2711 305.1783 14.41764530879053"
      },
      "geometry": {
        "type": "Point",
        "coordinates": [
          -2.808019045042396,
          57.70714061948707
        ]
      }
    },
    {
      "type": "Feature",
      "properties": {
        "norad_id": 34014,
        "name": "COSMOS 2251 DEB",
        "group": "cosmos-2251-debris",
        "lat": -5.871509673714531,
        "lon": -80.88940204365996,
        "alt_km": 643.9813561737419,
        "timestamp": "2025-12-12T16:50:33.539842+00:00",
        "meta_object_name": "COSMOS 2251 DEB",
        "meta_object_id": "1993-036GZ",
        "meta_epoch": "2025-12-11T23:16:17.632128",
        "meta_mean_motion": 14.73123659,
        "meta_eccentricity": 0.0036963,
        "meta_inclination": 74.017,
        "meta_ra_of_asc_node": 282.2272,
        "meta_arg_of_pericenter": 62.0466,
        "meta_mean_anomaly": 11.2871,
        "meta_ephemeris_type": 0,
        "meta_classification_type": "U",
        "meta_norad_cat_id": 34014,
        "meta_element_set_no": 999,
        "meta_rev_at_epoch": 89292,
        "meta_bstar": 0.0015254,
        "meta_mean_motion_dot": 9.915e-05,
        "meta_mean_motion_ddot": 0,
        "tle_line1": "1 34014U 93036GZ  25345.96964852  .00009915  00000+0  15254-2 0  9993",
        "tle_line2": "2 34014  74.0170 282.2272 0036963  62.0466  11.2871 14.73123659892920"
      },
      "geometry": {
        "type": "Point",
        "coordinates": [
          -80.88940204365996,
          -5.871509673714531
        ]
      }
    },
    {
      "type": "Feature",
      "properties": {
        "norad_id": 34015,
        "name": "COSMOS 2251 DEB",
        "group": "cosmos-2251-debris",
        "lat": 62.77828002133139,
        "lon": -54.34636278997299,
        "alt_km": 697.9162041008303,
        "timestamp": "2025-12-12T16:50:33.539852+00:00",
        "meta_object_name": "COSMOS 2251 DEB",
        "meta_object_id": "1993-036HA",
        "meta_epoch": "2025-12-11T22:46:01.840224",
        "meta_mean_motion": 14.60232788,
        "meta_eccentricity": 0.0021027,
        "meta_inclination": 74.0236,
        "meta_ra_of_asc_node": 160.9354,
        "meta_arg_of_pericenter": 257.9067,
        "meta_mean_anomaly": 216.9697,
        "meta_ephemeris_type": 0,
        "meta_classification_type": "U",
        "meta_norad_cat_id": 34015,
        "meta_element_set_no": 999,
        "meta_rev_at_epoch": 88519,
        "meta_bstar": 0.0021864,
        "meta_mean_motion_dot": 0.00010565,
        "meta_mean_motion_ddot": 0,
        "tle_line1": "1 34015U 93036HA  25345.94863241  .00010565  00000+0  21864-2 0  9999",
        "tle_line2": "2 34015  74.0236 160.9354 0021027 257.9067 216.9697 14.60232788885195"
      },
      "geometry": {
        "type": "Point",
        "coordinates": [
          -54.34636278997299,
          62.77828002133139
        ]
      }
    },
    {
      "type": "Feature",
      "properties": {
        "norad_id": 34018,
        "name": "COSMOS 2251 DEB",
        "group": "cosmos-2251-debris",
        "lat": -73.68784382765048,
        "lon": -6.602702946062774,
        "alt_km": 1112.02623845573,
        "timestamp": "2025-12-12T16:50:33.539862+00:00",
        "meta_object_name": "COSMOS 2251 DEB",
        "meta_object_id": "1993-036HD",
        "meta_epoch": "2025-12-11T17:40:54.069888",
        "meta_mean_motion": 13.81069983,
        "meta_eccentricity": 0.02637883,
        "meta_inclination": 73.8777,
        "meta_ra_of_asc_node": 93.7953,
        "meta_arg_of_pericenter": 129.8712,
        "meta_mean_anomaly": 19.4498,
        "meta_ephemeris_type": 0,
        "meta_classification_type": "U",
        "meta_norad_cat_id": 34018,
        "meta_element_set_no": 999,
        "meta_rev_at_epoch": 84643,
        "meta_bstar": 0.00079552946,
        "meta_mean_motion_dot": 1.073e-05,
        "meta_mean_motion_ddot": 0,
        "tle_line1": "1 34018U 93036HD  25345.73673692  .00001073  00000+0  79553-3 0  9991",
        "tle_line2": "2 34018  73.8777  93.7953 0263788 129.8712  19.4498 13.81069983846435"
      },
      "geometry": {
        "type": "Point",
        "coordinates": [
          -6.602702946062774,
          -73.68784382765048
        ]
      }
    },
    {
      "type": "Feature",
      "properties": {
        "norad_id": 34019,
        "name": "COSMOS 2251 DEB",
        "group": "cosmos-2251-debris",
        "lat": 22.706298707965818,
        "lon": 57.72620003330968,
        "alt_km": 817.3223330289375,
        "timestamp": "2025-12-12T16:50:33.539872+00:00",
        "meta_object_name": "COSMOS 2251 DEB",
        "meta_object_id": "1993-036HE",
        "meta_epoch": "2025-12-12T06:59:09.794976",
        "meta_mean_motion": 14.33935229,
        "meta_eccentricity": 0.00626918,
        "meta_inclination": 73.9547,
        "meta_ra_of_asc_node": 51.5647,
        "meta_arg_of_pericenter": 232.87,
        "meta_mean_anomaly": 191.358,
        "meta_ephemeris_type": 0,
        "meta_classification_type": "U",
        "meta_norad_cat_id": 34019,
        "meta_element_set_no": 999,
        "meta_rev_at_epoch": 87514,
        "meta_bstar": 0.0014032569,
        "meta_mean_motion_dot": 3.975e-05,
        "meta_mean_motion_ddot": 0,
        "tle_line1": "1 34019U 93036HE  25346.29108559  .00003975  00000+0  14033-2 0  9993",
        "tle_line2": "2 34019  73.9547  51.5647 0062691 232.8700 191.3580 14.33935229875141"
      },
      "geometry": {
        "type": "Point",
        "coordinates": [
          57.72620003330968,
          22.706298707965818
        ]
      }
    },
    {
      "type": "Feature",
      "properties": {
        "norad_id": 34021,
        "name": "COSMOS 2251 DEB",
        "group": "cosmos-2251-debris",
        "lat": 56.03363835078889,
        "lon": -75.24604459334395,
        "alt_km": 733.410328249055,
        "timestamp": "2025-12-12T16:50:33.539883+00:00",
        "meta_object_name": "COSMOS 2251 DEB",
        "meta_object_id": "1993-036HG",
        "meta_epoch": "2025-12-11T21:07:41.922912",
        "meta_mean_motion": 14.49943038,
        "meta_eccentricity": 0.0020922,
        "meta_inclination": 74.0359,
        "meta_ra_of_asc_node": 131.4418,
        "meta_arg_of_pericenter": 275.5829,
        "meta_mean_anomaly": 238.8911,
        "meta_ephemeris_type": 0,
        "meta_classification_type": "U",
        "meta_norad_cat_id": 34021,
        "meta_element_set_no": 999,
        "meta_rev_at_epoch": 88617,
        "meta_bstar": 0.00081664,
        "meta_mean_motion_dot": 3.141e-05,
        "meta_mean_motion_ddot": 0,
        "tle_line1": "1 34021U 93036HG  25345.88034633  .00003141  00000+0  81664-3 0  9991",
        "tle_line2": "2 34021  74.0359 131.4418 0020922 275.5829 238.8911 14.49943038886172"
      },
      "geometry": {
        "type": "Point",
        "coordinates": [
          -75.24604459334395,
          56.03363835078889
        ]
      }
    }
  ]
}